TDRS 3                  
1 19548U 88091B   23014.27047609 -.00000283  00000+0  00000+0 0  9990
2 19548  13.5602 349.6917 0040273 333.4455 198.9374  1.00270044112832
HST                     
1 20580U 90037B   23014.27382182  .00005512  00000+0  30551-3 0  9996
2 20580  28.4685 210.9234 0002469 146.3744  22.3087 15.11626168598406
TDRS 5                  
1 21639U 91054B   23014.36587847  .00000099  00000+0  00000+0 0  9994
2 21639  14.2202   3.0066 0027210 350.8084  83.8144  1.00275451115177
TDRS 6                  
1 22314U 93003B   23014.39730553 -.00000281  00000+0  00000+0 0  9992
2 22314  14.1432   6.2731 0007398 138.9057  65.2653  1.00280965109848
TDRS 7                  
1 23613U 95035B   23013.86925219 -.00000184  00000+0  00000+0 0  9990
2 23613  13.8957 356.9865 0025110  49.9330 103.7092  1.00267561100617
ISS (ZARYA)             
1 25544U 98067A   23014.48681925  .00014980  00000+0  26798-3 0  9999
2 25544  51.6442   9.8650 0004534 265.3547 200.7773 15.50204773377951
LANDSAT 7               
1 25682U 99020A   23014.19989787 -.00000106  00000+0 -13098-4 0  9994
2 25682  97.9520  59.0102 0001379  99.6433 260.4934 14.59874311263314
TERRA                   
1 25994U 99068A   23014.52805477  .00000798  00000+0  17977-3 0  9996
2 25994  98.1150  86.5992 0001879 149.6362 323.6320 14.58976701227378
TDRS 8                  
1 26388U 00034A   23013.87380263 -.00000218  00000+0  00000+0 0  9990
2 26388  10.6990  41.0942 0019969 327.7006 147.7462  1.00280947 82645
TIMED                   
1 26998U 01055B   23014.03146674  .00001675  00000+0  18161-3 0  9994
2 26998  74.0704 220.0102 0000730 321.6181  38.4948 14.89087447144486
TDRS 9                  
1 27389U 02011A   23014.54286708 -.00000190  00000+0  00000+0 0  9992
2 27389   9.4813  58.5760 0002948 286.5417 251.4540  0.99720496 77903
AQUA                    
1 27424U 02022A   23014.41080997  .00001618  00000+0  36556-3 0  9996
2 27424  98.2716 319.5639 0000750  53.6595  56.6351 14.57581437100951
TDRS 10                 
1 27566U 02055A   23014.46866955  .00000104  00000+0  00000+0 0  9990
2 27566   8.5893  48.7634 0006490 311.6700 110.7717  1.00270776 73699
SORCE                   
1 27651U 03004A   23013.69608429  .00004050  00000+0  41821-3 0  9998
2 27651  39.9943 123.0114 0021508 154.4631 205.7225 14.90666055 84447
AURA                    
1 28376U 04026A   23013.90008846  .00001537  00000+0  35136-3 0  9998
2 28376  98.2336 319.4404 0001267  87.4313 272.7030 14.57092973983879
SWIFT                   
1 28485U 04047A   23013.93607630  .00009529  00000+0  57002-3 0  9996
2 28485  20.5568 271.1845 0010264  89.8971 270.2640 15.08121488995347
THEMIS A                
1 30580U 07004A   23013.22109376 -.00000185  00000+0 -29231-1 0  9999
2 30580  12.3532 322.3690 8355277 209.8933  74.6764  0.87832682 30281
THEMIS D                
1 30797U 07004D   23013.23112795 -.00000108  00000+0  00000+0 0  9994
2 30797   8.3375 310.0732 8305872 225.5633  90.3883  0.87834939 30082
THEMIS E                
1 30798U 07004E   23013.22969382 -.00000104  00000+0  00000+0 0  9992
2 30798   9.5305 326.6933 8303142 210.8520  83.0448  0.87858911 54926
AIM                     
1 31304U 07015A   23013.53335465  .00022170  00000+0  96880-3 0  9992
2 31304  97.8628 306.1803 0005084  35.4275 324.7297 15.22105972863091
FGRST (GLAST)           
1 33053U 08029A   23013.76261124  .00003102  00000+0  15460-3 0  9995
2 33053  25.5813 172.4029 0012277  97.9376 262.2553 15.12922911805578
WISE                    
1 36119U 09071A   23014.08718653  .00015321  00000+0  42784-3 0  9994
2 36119  97.2176  49.4222 0000349 262.2212  97.8993 15.36803410727833
TDRS 11                 
1 39070U 13004A   23014.62478720  .00000101  00000+0  00000+0 0  9993
2 39070   2.7742 352.6763 0003631  42.7638 128.8771  1.00268613 36457
TDRS 12                 
1 39504U 14004A   23014.12857156 -.00000248  00000+0  00000+0 0  9998
2 39504   3.7024 351.3492 0000994 220.2133 266.9661  1.00277434 32910
GPM-CORE                
1 39574U 14009C   23014.57762259  .00021330  00000+0  30273-3 0  9991
2 39574  64.9974 189.6851 0009948 271.3780  88.6226 15.56403557504467
MMS 1                   
1 40482U 15011A   23013.71450568 -.00001179  00000+0  00000+0 0  9998
2 40482  29.4742  86.8642 8940508  72.8562  41.7625  0.28513859 13905
MMS 2                   
1 40483U 15011B   23013.72145013 -.00001179  00000+0  00000+0 0  9996
2 40483  29.4717  86.8702 8940093  72.8441  42.4927  0.28518660 13964
MMS 3                   
1 40484U 15011C   23013.73256124 -.00001179  00000+0  00000+0 0  9994
2 40484  29.4758  86.8634 8940352  72.8484  43.6446  0.28514404 13645
MMS 4                   
1 40485U 15011D   23013.72839457 -.00001179  00000+0  00000+0 0  9990
2 40485  29.4734  86.8522 8941073  72.8591  43.2088  0.28519154 13854
TDRS 13                 
1 42915U 17047A   23014.27788512 -.00000078  00000+0  00000+0 0  9994
2 42915   4.1923 335.7458 0013320 109.8572 116.2973  1.00270728 19846
JPSS-1                  
1 43013U 17073A   23014.53591714  .00000149  00000+0  91547-4 0  9997
2 43013  98.7390 314.9777 0001332 109.3721 250.7599 14.19544738267175
